{
  "type": "FeatureCollection",
  "features": [
    {
      "type": "Feature",
      "properties": {
        "norad_id": 54259,
        "name": "EUTELSAT 10B",
        "group": "eutelsat",
        "lat": -0.045067855320532084,
        "lon": -48.31174124640304,
        "alt_km": 35789.31609217551,
        "timestamp": "2025-12-09T14:52:25.837618+00:00",
        "meta_object_name": "EUTELSAT 10B",
        "meta_object_id": "2022-157A",
        "meta_epoch": "2025-12-09T03:20:52.848384",
        "meta_mean_motion": 1.00268961,
        "meta_eccentricity": 8.419e-05,
        "meta_inclination": 0.0634,
        "meta_ra_of_asc_node": 98.9247,
        "meta_arg_of_pericenter": 78.1718,
        "meta_mean_anomaly": 321.232,
        "meta_ephemeris_type": 0,
        "meta_classification_type": "U",
        "meta_norad_cat_id": 54259,
        "meta_element_set_no": 999,
        "meta_rev_at_epoch": 1112,
        "meta_bstar": 0,
        "meta_mean_motion_dot": 7e-07,
        "meta_mean_motion_ddot": 0,
        "tle_line1": "1 54259U 22157A   25343.13950056  .00000070  00000+0  00000+0 0  9993",
        "tle_line2": "2 54259   0.0634  98.9247 0000841  78.1718 321.2320  1.00268961 11125"
      },
      "geometry": {
        "type": "Point",
        "coordinates": [
          -48.31174124640304,
          -0.045067855320532084
        ]
      }
    },
    {
      "type": "Feature",
      "properties": {
        "norad_id": 59346,
        "name": "EUTELSAT 36D",
        "group": "eutelsat",
        "lat": 0.0006213960419899722,
        "lon": -22.425476389987015,
        "alt_km": 35785.27047887234,
        "timestamp": "2025-12-09T14:52:25.837631+00:00",
        "meta_object_name": "EUTELSAT 36D",
        "meta_object_id": "2024-059A",
        "meta_epoch": "2025-12-09T05:10:57.305856",
        "meta_mean_motion": 1.00269157,
        "meta_eccentricity": 4.025e-05,
        "meta_inclination": 0.0171,
        "meta_ra_of_asc_node": 333.674,
        "meta_arg_of_pericenter": 336.1739,
        "meta_mean_anomaly": 241.9646,
        "meta_ephemeris_type": 0,
        "meta_classification_type": "U",
        "meta_norad_cat_id": 59346,
        "meta_element_set_no": 999,
        "meta_rev_at_epoch": 624,
        "meta_bstar": 0,
        "meta_mean_motion_dot": 1.58e-06,
        "meta_mean_motion_ddot": 0,
        "tle_line1": "1 59346U 24059A   25343.21594104  .00000158  00000+0  00000+0 0  9992",
        "tle_line2": "2 59346   0.0171 333.6740 0000402 336.1739 241.9646  1.00269157  6247"
      },
      "geometry": {
        "type": "Point",
        "coordinates": [
          -22.425476389987015,
          0.0006213960419899722
        ]
      }
    }
  ]
}